{"fetched_at":"2026-03-29T02:12:04Z","count":15717,"tles":[{"name":"STARLINK-32421","line1":"1 61628U 24191H   26087.57682136 -.00001144  00000+0 -32036-4 0  9990","line2":"2 61628  42.9998  47.9534 0002369 259.2477 100.8108 15.27568113 80425","category":"Starlink"}]}